MR-2                    
1 67556U 26015A   26051.77333506  .00000054  00000+0  63294-4 0  9997
2 67556  88.9959 280.3830 0004965  68.7138 291.4543 13.52686849  3979
MR-1                    
1 67557U 26015B   26051.69989788  .00000062  00000+0  75077-4 0  9999
2 67557  88.9958 280.3907 0005023  67.7043 292.4641 13.52662047  3967
ELECTRON R/B            
1 67558U 26015C   26051.83710293  .08367179 -17331-5  84498-3 0  9990
2 67558  88.9462 279.3881 0159294 158.0515 202.7706 16.08092283  4471
ELECTRON KICK STAGE R/B 
1 67559U 26015D   26051.74476773  .00046377 -16832-6  77415-3 0  9996
2 67559  89.0488 279.9160 0526575 232.3986 122.8323 14.68775105  4300
STARLINK-36426          
1 67560U 26014AA  26051.64542051  .00182567  00000+0  11976-2 0  9992
2 67560  97.2832 295.7899 0001361 101.2851 258.8567 15.75215677  5883
STARLINK-36621          
1 67561U 26016A   26051.70129729  .00227530  00000+0  14855-2 0  9994
2 67561  97.2824 111.2668 0001701  87.9391 272.2069 15.75198199  4120
STARLINK-36398          
1 67562U 26016B   26051.70871129  .00240064  00000+0  15645-2 0  9998
2 67562  97.2839 111.2544 0002529  62.0410 298.1111 15.75204253  4129
STARLINK-36403          
1 67563U 26016C   26051.66297697  .00564718  00000+0  27745-2 0  9995
2 67563  97.2828 111.3210 0005006   0.4613 359.6659 15.80717101  4120
STARLINK-36593          
1 67564U 26016D   26051.83335647 -.00223764  00000+0 -15310-2 0  9993
2 67564  97.2835 111.4889 0001722  92.1914 128.2825 15.75306736  5280
STARLINK-35725          
1 67565U 26016E   26051.68894956  .00322852  00000+0  20725-2 0  9992
2 67565  97.2838 111.2841 0001733  47.6115 312.5296 15.75324383  4120
STARLINK-36394          
1 67566U 26016F   26051.69071428  .00339824  00000+0  21764-2 0  9996
2 67566  97.2834 111.2777 0002062  57.6600 302.4865 15.75331200  4127
STARLINK-36352          
1 67567U 26016G   26051.65798474  .00402564  00000+0  19929-2 0  9992
2 67567  97.2858 111.3251 0002065  49.6311 310.5137 15.80970137  4121
